[{"CCSDS_OMM_VERS":"2.0","COMMENT":"GENERATED VIA SPACE-TRACK.ORG API","CREATION_DATE":"2016-07-20T07:26:15","ORIGINATOR":"18 SPCS","OBJECT_NAME":"GALILEO-FM2","OBJECT_ID":"2011-060B","CENTER_NAME":"EARTH","REF_FRAME":"TEME","TIME_SYSTEM":"UTC","MEAN_ELEMENT_THEORY":"SGP4","EPOCH":"2016-07-20T02:06:15.824160","MEAN_MOTION":"1.70474327","ECCENTRICITY":"0.00038470","INCLINATION":"55.5764","RA_OF_ASC_NODE":"81.0276","ARG_OF_PERICENTER":"322.6784","MEAN_ANOMALY":"6.9686","EPHEMERIS_TYPE":"0","CLASSIFICATION_TYPE":"U","NORAD_CAT_ID":"37847","ELEMENT_SET_NO":"999","REV_AT_EPOCH":"2954","BSTAR":"0.00000000000000","MEAN_MOTION_DOT":"-0.00000027","MEAN_MOTION_DDOT":"0.0000000000000","SEMIMAJOR_AXIS":"29600.282","PERIOD":"844.701","APOAPSIS":"23233.534","PERIAPSIS":"23210.759","OBJECT_TYPE":"PAYLOAD","RCS_SIZE":"LARGE","COUNTRY_CODE":"ESA","LAUNCH_DATE":"2011-10-21","SITE":"FRGUI","DECAY_DATE":null,"FILE":"2062392","GP_ID":"106116732","TLE_LINE0":"0 GALILEO-FM2","TLE_LINE1":"1 37847U 11060B   16202.08768315 -.00000027  00000-0  00000+0 0  9995","TLE_LINE2":"2 37847  55.5764  81.0276 0003847 322.6784   6.9686  1.70474327 29541"},{"CCSDS_OMM_VERS":"2.0","COMMENT":"GENERATED VIA SPACE-TRACK.ORG API","CREATION_DATE":"2016-07-22T18:55:09","ORIGINATOR":"18 SPCS","OBJECT_NAME":"GALILEO-FM2","OBJECT_ID":"2011-060B","CENTER_NAME":"EARTH","REF_FRAME":"TEME","TIME_SYSTEM":"UTC","MEAN_ELEMENT_THEORY":"SGP4","EPOCH":"2016-07-21T01:37:42.671136","MEAN_MOTION":"1.70474306","ECCENTRICITY":"0.00037510","INCLINATION":"55.5770","RA_OF_ASC_NODE":"81.0001","ARG_OF_PERICENTER":"323.1702","MEAN_ANOMALY":"248.0306","EPHEMERIS_TYPE":"0","CLASSIFICATION_TYPE":"U","NORAD_CAT_ID":"37847","ELEMENT_SET_NO":"999","REV_AT_EPOCH":"2944","BSTAR":"0.00000000000000","MEAN_MOTION_DOT":"-0.00000025","MEAN_MOTION_DDOT":"0.0000000000000","SEMIMAJOR_AXIS":"29600.284","PERIOD":"844.702","APOAPSIS":"23233.252","PERIAPSIS":"23211.046","OBJECT_TYPE":"PAYLOAD","RCS_SIZE":"LARGE","COUNTRY_CODE":"ESA","LAUNCH_DATE":"2011-10-21","SITE":"FRGUI","DECAY_DATE":null,"FILE":"2063424","GP_ID":"106165051","TLE_LINE0":"0 GALILEO-FM2","TLE_LINE1":"1 37847U 11060B   16203.06785499 -.00000025 +00000-0 +00000-0 0  9995","TLE_LINE2":"2 37847 055.5770 081.0001 0003751 323.1702 248.0306 01.70474306029448"},{"CCSDS_OMM_VERS":"2.0","COMMENT":"GENERATED VIA SPACE-TRACK.ORG API","CREATION_DATE":"2016-07-22T23:05:41","ORIGINATOR":"18 SPCS","OBJECT_NAME":"GALILEO-FM2","OBJECT_ID":"2011-060B","CENTER_NAME":"EARTH","REF_FRAME":"TEME","TIME_SYSTEM":"UTC","MEAN_ELEMENT_THEORY":"SGP4","EPOCH":"2016-07-22T18:45:29.446848","MEAN_MOTION":"1.70474258","ECCENTRICITY":"0.00037050","INCLINATION":"55.5782","RA_OF_ASC_NODE":"80.9520","ARG_OF_PERICENTER":"323.4518","MEAN_ANOMALY":"219.5070","EPHEMERIS_TYPE":"0","CLASSIFICATION_TYPE":"U","NORAD_CAT_ID":"37847","ELEMENT_SET_NO":"999","REV_AT_EPOCH":"2959","BSTAR":"0.00000000000000","MEAN_MOTION_DOT":"-0.00000025","MEAN_MOTION_DDOT":"0.0000000000000","SEMIMAJOR_AXIS":"29600.290","PERIOD":"844.702","APOAPSIS":"23233.122","PERIAPSIS":"23211.188","OBJECT_TYPE":"PAYLOAD","RCS_SIZE":"LARGE","COUNTRY_CODE":"ESA","LAUNCH_DATE":"2011-10-21","SITE":"FRGUI","DECAY_DATE":null,"FILE":"2063512","GP_ID":"106168059","TLE_LINE0":"0 GALILEO-FM2","TLE_LINE1":"1 37847U 11060B   16204.78159082 -.00000025  00000-0  00000+0 0  9997","TLE_LINE2":"2 37847  55.5782  80.9520 0003705 323.4518 219.5070  1.70474258 29595"},{"CCSDS_OMM_VERS":"2.0","COMMENT":"GENERATED VIA SPACE-TRACK.ORG API","CREATION_DATE":"2016-07-25T15:51:09","ORIGINATOR":"18 SPCS","OBJECT_NAME":"GALILEO-FM2","OBJECT_ID":"2011-060B","CENTER_NAME":"EARTH","REF_FRAME":"TEME","TIME_SYSTEM":"UTC","MEAN_ELEMENT_THEORY":"SGP4","EPOCH":"2016-07-24T14:12:17.587872","MEAN_MOTION":"1.70474220","ECCENTRICITY":"0.00036440","INCLINATION":"55.5794","RA_OF_ASC_NODE":"80.9010","ARG_OF_PERICENTER":"323.8588","MEAN_ANOMALY":"250.1089","EPHEMERIS_TYPE":"0","CLASSIFICATION_TYPE":"U","NORAD_CAT_ID":"37847","ELEMENT_SET_NO":"999","REV_AT_EPOCH":"2950","BSTAR":"0.00000000000000","MEAN_MOTION_DOT":"-0.00000032","MEAN_MOTION_DDOT":"0.0000000000000","SEMIMAJOR_AXIS":"29600.294","PERIOD":"844.702","APOAPSIS":"23232.945","PERIAPSIS":"23211.373","OBJECT_TYPE":"PAYLOAD","RCS_SIZE":"LARGE","COUNTRY_CODE":"ESA","LAUNCH_DATE":"2011-10-21","SITE":"FRGUI","DECAY_DATE":null,"FILE":"2064650","GP_ID":"106217351","TLE_LINE0":"0 GALILEO-FM2","TLE_LINE1":"1 37847U 11060B   16206.59187023 -.00000032 +00000-0 +00000-0 0  9993","TLE_LINE2":"2 37847 055.5794 080.9010 0003644 323.8588 250.1089 01.70474220029506"},{"CCSDS_OMM_VERS":"2.0","COMMENT":"GENERATED VIA SPACE-TRACK.ORG API","CREATION_DATE":"2016-07-25T07:08:33","ORIGINATOR":"18 SPCS","OBJECT_NAME":"GALILEO-FM2","OBJECT_ID":"2011-060B","CENTER_NAME":"EARTH","REF_FRAME":"TEME","TIME_SYSTEM":"UTC","MEAN_ELEMENT_THEORY":"SGP4","EPOCH":"2016-07-25T03:07:04.884960","MEAN_MOTION":"1.70474211","ECCENTRICITY":"0.00036260","INCLINATION":"55.5799","RA_OF_ASC_NODE":"80.8859","ARG_OF_PERICENTER":"323.9840","MEAN_ANOMALY":"220.1954","EPHEMERIS_TYPE":"0","CLASSIFICATION_TYPE":"U","NORAD_CAT_ID":"37847","ELEMENT_SET_NO":"999","REV_AT_EPOCH":"2963","BSTAR":"0.00000000000000","MEAN_MOTION_DOT":"-0.00000035","MEAN_MOTION_DDOT":"0.0000000000000","SEMIMAJOR_AXIS":"29600.295","PERIOD":"844.702","APOAPSIS":"23232.893","PERIAPSIS":"23211.427","OBJECT_TYPE":"PAYLOAD","RCS_SIZE":"LARGE","COUNTRY_CODE":"ESA","LAUNCH_DATE":"2011-10-21","SITE":"FRGUI","DECAY_DATE":null,"FILE":"2064467","GP_ID":"106205393","TLE_LINE0":"0 GALILEO-FM2","TLE_LINE1":"1 37847U 11060B   16207.12991765 -.00000035  00000-0  00000+0 0  9991","TLE_LINE2":"2 37847  55.5799  80.8859 0003626 323.9840 220.1954  1.70474211 29635"},{"CCSDS_OMM_VERS":"2.0","COMMENT":"GENERATED VIA SPACE-TRACK.ORG API","CREATION_DATE":"2016-07-28T14:10:37","ORIGINATOR":"18 SPCS","OBJECT_NAME":"GALILEO-FM2","OBJECT_ID":"2011-060B","CENTER_NAME":"EARTH","REF_FRAME":"TEME","TIME_SYSTEM":"UTC","MEAN_ELEMENT_THEORY":"SGP4","EPOCH":"2016-07-28T09:36:22.258368","MEAN_MOTION":"1.70474199","ECCENTRICITY":"0.00035170","INCLINATION":"55.5823","RA_OF_ASC_NODE":"80.7938","ARG_OF_PERICENTER":"324.6953","MEAN_ANOMALY":"66.5647","EPHEMERIS_TYPE":"0","CLASSIFICATION_TYPE":"U","NORAD_CAT_ID":"37847","ELEMENT_SET_NO":"999","REV_AT_EPOCH":"2969","BSTAR":"0.00000000000000","MEAN_MOTION_DOT":"-0.00000049","MEAN_MOTION_DDOT":"0.0000000000000","SEMIMAJOR_AXIS":"29600.297","PERIOD":"844.702","APOAPSIS":"23232.572","PERIAPSIS":"23211.751","OBJECT_TYPE":"PAYLOAD","RCS_SIZE":"LARGE","COUNTRY_CODE":"ESA","LAUNCH_DATE":"2011-10-21","SITE":"FRGUI","DECAY_DATE":null,"FILE":"2065911","GP_ID":"106261229","TLE_LINE0":"0 GALILEO-FM2","TLE_LINE1":"1 37847U 11060B   16210.40025762 -.00000049  00000-0  00000+0 0  9996","TLE_LINE2":"2 37847  55.5823  80.7938 0003517 324.6953  66.5647  1.70474199 29694"},{"CCSDS_OMM_VERS":"2.0","COMMENT":"GENERATED VIA SPACE-TRACK.ORG API","CREATION_DATE":"2016-07-30T14:30:51","ORIGINATOR":"18 SPCS","OBJECT_NAME":"GALILEO-FM2","OBJECT_ID":"2011-060B","CENTER_NAME":"EARTH","REF_FRAME":"TEME","TIME_SYSTEM":"UTC","MEAN_ELEMENT_THEORY":"SGP4","EPOCH":"2016-07-29T19:49:12.403200","MEAN_MOTION":"1.70474218","ECCENTRICITY":"0.00034680","INCLINATION":"55.5834","RA_OF_ASC_NODE":"80.7538","ARG_OF_PERICENTER":"324.8145","MEAN_ANOMALY":"221.3559","EPHEMERIS_TYPE":"0","CLASSIFICATION_TYPE":"U","NORAD_CAT_ID":"37847","ELEMENT_SET_NO":"999","REV_AT_EPOCH":"2959","BSTAR":"0.00000000000000","MEAN_MOTION_DOT":"-0.00000049","MEAN_MOTION_DDOT":"0.0000000000000","SEMIMAJOR_AXIS":"29600.294","PERIOD":"844.702","APOAPSIS":"23232.425","PERIAPSIS":"23211.894","OBJECT_TYPE":"PAYLOAD","RCS_SIZE":"LARGE","COUNTRY_CODE":"ESA","LAUNCH_DATE":"2011-10-21","SITE":"FRGUI","DECAY_DATE":null,"FILE":"2066721","GP_ID":"106303230","TLE_LINE0":"0 GALILEO-FM2","TLE_LINE1":"1 37847U 11060B   16211.82583800 -.00000049 +00000-0 +00000-0 0  9996","TLE_LINE2":"2 37847 055.5834 080.7538 0003468 324.8145 221.3559 01.70474218029596"},{"CCSDS_OMM_VERS":"2.0","COMMENT":"GENERATED VIA SPACE-TRACK.ORG API","CREATION_DATE":"2016-07-30T23:29:33","ORIGINATOR":"18 SPCS","OBJECT_NAME":"GALILEO-FM2","OBJECT_ID":"2011-060B","CENTER_NAME":"EARTH","REF_FRAME":"TEME","TIME_SYSTEM":"UTC","MEAN_ELEMENT_THEORY":"SGP4","EPOCH":"2016-07-30T15:11:04.568064","MEAN_MOTION":"1.70474228","ECCENTRICITY":"0.00034400","INCLINATION":"55.5839","RA_OF_ASC_NODE":"80.7310","ARG_OF_PERICENTER":"324.8995","MEAN_ANOMALY":"356.4550","EPHEMERIS_TYPE":"0","CLASSIFICATION_TYPE":"U","NORAD_CAT_ID":"37847","ELEMENT_SET_NO":"999","REV_AT_EPOCH":"2972","BSTAR":"0.00000000000000","MEAN_MOTION_DOT":"-0.00000047","MEAN_MOTION_DDOT":"0.0000000000000","SEMIMAJOR_AXIS":"29600.293","PERIOD":"844.702","APOAPSIS":"23232.341","PERIAPSIS":"23211.976","OBJECT_TYPE":"PAYLOAD","RCS_SIZE":"LARGE","COUNTRY_CODE":"ESA","LAUNCH_DATE":"2011-10-21","SITE":"FRGUI","DECAY_DATE":null,"FILE":"2066977","GP_ID":"106310394","TLE_LINE0":"0 GALILEO-FM2","TLE_LINE1":"1 37847U 11060B   16212.63269176 -.00000047  00000-0  00000+0 0  9990","TLE_LINE2":"2 37847  55.5839  80.7310 0003440 324.8995 356.4550  1.70474228 29729"}]